GSAT0101 (PRN E11)      
1 37846U 11060A   22239.81521853 -.00000070  00000+0  00000+0 0  9993
2 37846  57.0228  19.3992 0002276  70.9273 289.0961  1.70475084 67433
GSAT0102 (PRN E12)      
1 37847U 11060B   22238.55782259 -.00000073  00000+0  00000+0 0  9996
2 37847  57.0228  19.4330 0001396   5.6937 349.3896  1.70475503 67539
GSAT0103 (PRN E19)      
1 38857U 12055A   22239.26805746  .00000000  00000+0  00000+0 0  9998
2 38857  55.1551 139.7524 0003006 267.1328  92.8892  1.70473817 61311
GSAT0104 (PRN E20)      
1 38858U 12055B   22238.06487177 -.00000009  00000+0  00000+0 0  9990
2 38858  55.1549 139.7871 0000765 265.7122  94.3258  1.70474193 61297
GSAT0201 (PRN E18)      
1 40128U 14050A   22240.43526517 -.00000074  00000+0  00000+0 0  9998
2 40128  50.2341 329.4155 1622739 126.6691 249.3812  1.85519165 52559
GSAT0202 (PRN E14)      
1 40129U 14050B   22239.61802434 -.00000074  00000+0  00000+0 0  9992
2 40129  50.2586 328.5106 1619878 127.4507 248.4298  1.85519732 54709
GSAT0203 (PRN E26)      
1 40544U 15017A   22240.18202751 -.00000070  00000+0  00000+0 0  9993
2 40544  56.8182  19.4127 0002610 213.7563 146.2263  1.70476223 45521
GSAT0204 (PRN E22)      
1 40545U 15017B   22240.43489271 -.00000070  00000+0  00000+0 0  9996
2 40545  56.8237  19.4185 0003042 193.7220 166.2692  1.70475828  8576
GSAT0205 (PRN E24)      
1 40889U 15045A   22239.02899881  .00000056  00000+0  00000+0 0  9996
2 40889  55.5804 260.0129 0003661 347.7305  12.3184  1.70473531 43314
GSAT0206 (PRN E30)      
1 40890U 15045B   22239.83634506  .00000056  00000+0  00000+0 0  9998
2 40890  55.5786 259.9865 0002491 316.1121  43.9212  1.70473595 43351
GSAT0209 (PRN E09)      
1 41174U 15079A   22240.01055219  .00000005  00000+0  00000+0 0  9995
2 41174  55.1717 139.4361 0003494 324.2684  35.7709  1.70474037 41099
GSAT0208 (PRN E08)      
1 41175U 15079B   22239.05687155 -.00000001  00000+0  00000+0 0  9995
2 41175  55.1698 139.4608 0002413 335.9350  24.1091  1.70473851 41494
GSAT0211 (PRN E02)      
1 41549U 16030A   22240.34907137  .00000055  00000+0  00000+0 0  9995
2 41549  55.7245 259.9127 0004535 302.7006  57.3057  1.70475020 38995
GSAT0210 (PRN E01)      
1 41550U 16030B   22238.88193738  .00000057  00000+0  00000+0 0  9999
2 41550  55.7260 259.9544 0007300 272.6013  87.3737  1.70475141 38962
GSAT0207 (PRN E07)      
1 41859U 16069A   22238.54433420 -.00000006  00000+0  00000+0 0  9996
2 41859  54.8321 139.6404 0003553 305.7155  54.3021  1.70472696 35916
GSAT0212 (PRN E03)      
1 41860U 16069B   22238.39773411 -.00000007  00000+0  00000+0 0  9999
2 41860  54.8296 139.6419 0002693 338.0847  21.9533  1.70472752 35940
GSAT0213 (PRN E04)      
1 41861U 16069C   22239.93626760  .00000004  00000+0  00000+0 0  9991
2 41861  54.8324 139.6045 0003216 279.3924  80.6327  1.70472938 35830
GSAT0214 (PRN E05)      
1 41862U 16069D   22238.32362052 -.00000007  00000+0  00000+0 0  9999
2 41862  54.8300 139.6437 0002297 284.6450  75.3785  1.70472762 35936
GSAT0215 (PRN E21)      
1 43055U 17079A   22238.81371812  .00000057  00000+0  00000+0 0  9999
2 43055  55.7012 259.7864 0004092 268.5139  91.4978  1.70474291 29283
GSAT0216 (PRN E25)      
1 43056U 17079B   22239.69246619  .00000056  00000+0  00000+0 0  9992
2 43056  55.7016 259.7619 0005773 273.7017  86.2858  1.70474388 29316
GSAT0217 (PRN E27)      
1 43057U 17079C   22237.56640534  .00000057  00000+0  00000+0 0  9992
2 43057  55.7004 259.8203 0005118 282.1192  77.8877  1.70474417 29269
GSAT0218 (PRN E31)      
1 43058U 17079D   22239.54617949  .00000056  00000+0  00000+0 0  9996
2 43058  55.6995 259.7631 0006236 270.9964  88.9866  1.70474345 29324
GSAT0221 (PRN E15)      
1 43564U 18060A   22239.44493477 -.00000071  00000+0  00000+0 0  9994
2 43564  57.2001  19.2665 0002168 246.1098 113.8661  1.70476125 25472
GSAT0222 (PRN E33)      
1 43565U 18060B   22239.66480625 -.00000071  00000+0  00000+0 0  9990
2 43565  57.2025  19.2611 0001535 258.4534 101.5280  1.70476086 25521
GSAT0219 (PRN E36)      
1 43566U 18060C   22239.29876582 -.00000071  00000+0  00000+0 0  9991
2 43566  57.2015  19.2729 0001193 251.9945 107.9911  1.70476121 25492
GSAT0220 (PRN E13)      
1 43567U 18060D   22239.51892210 -.00000071  00000+0  00000+0 0  9993
2 43567  57.2038  19.2678 0001582 244.6037 115.3785  1.70476032 25486
GSAT0223                
1 49809U 21116A   22239.37668171 -.00000071  00000+0  00000+0 0  9995
2 49809  57.1947  19.1697 0003274 161.6132 201.1187  1.70476254  4497
GSAT0224                
1 49810U 21116B   22239.77815602 -.00000071  00000+0  00000+0 0  9994
2 49810  57.1961  19.1568 0002807 149.8403 211.7633  1.70476211  4522
